[
    {
        "Altitude(m)": 605470.7970216604,
        "Argument of Periapsis(deg)": 0.0,
        "Eccentricity": 0.0,
        "Inclination(deg)": 60.0,
        "Latitude(deg)": 27.98822895174527,
        "Longitude(deg)": 117.2629607711639,
        "Mean Anomaly(deg)": 147.2727,
        "RAAN(deg)": 55.00000000000001,
        "Satellite Name": "Test1 251",
        "Satellite Number": 251,
        "Semi-Major Axis(m)": 6980739.136638005,
        "Time(s)": 0
    },
    {
        "Altitude(m)": 605395.8347696256,
        "Argument of Periapsis(deg)": 0.00010418945913296404,
        "Eccentricity": 0.0,
        "Inclination(deg)": 60.0,
        "Latitude(deg)": 27.473919489192536,
        "Longitude(deg)": 117.61614832572987,
        "Mean Anomaly(deg)": 147.8928061454618,
        "RAAN(deg)": 54.999579950860266,
        "Satellite Name": "Test1 251",
        "Satellite Number": 251,
        "Semi-Major Axis(m)": 6980739.136638005,
        "Time(s)": 10
    }
]